CCSDS_OMM_VERS = 2.0
CREATION_DATE  = 
ORIGINATOR     = 

OBJECT_NAME    = KUIPER-00101
OBJECT_ID      = 2025-228A
CENTER_NAME    = EARTH
REF_FRAME      = TEME
TIME_SYSTEM    = UTC
MEAN_ELEMENT_THEORY = SGP/SGP4

EPOCH          = 2025-11-12T20:00:03.000384
MEAN_MOTION    = 15.28345865
ECCENTRICITY   = .0005649
INCLINATION    = 51.8821
RA_OF_ASC_NODE = 164.8594
ARG_OF_PERICENTER = 234.8888
MEAN_ANOMALY   = 12.2122

EPHEMERIS_TYPE = 0
CLASSIFICATION_TYPE = U
NORAD_CAT_ID   = 65947
ELEMENT_SET_NO = 999
REV_AT_EPOCH   = 550
BSTAR          = -.11536E-1
MEAN_MOTION_DOT = -.310483E-2
MEAN_MOTION_DDOT = 0

CCSDS_OMM_VERS = 2.0
CREATION_DATE  = 
ORIGINATOR     = 

OBJECT_NAME    = KUIPER-00113
OBJECT_ID      = 2025-228B
CENTER_NAME    = EARTH
REF_FRAME      = TEME
TIME_SYSTEM    = UTC
MEAN_ELEMENT_THEORY = SGP/SGP4

EPOCH          = 2025-11-12T13:43:21.156960
MEAN_MOTION    = 15.35525529
ECCENTRICITY   = .0005988
INCLINATION    = 51.8752
RA_OF_ASC_NODE = 165.8574
ARG_OF_PERICENTER = 241.5321
MEAN_ANOMALY   = 118.5062

EPHEMERIS_TYPE = 0
CLASSIFICATION_TYPE = U
NORAD_CAT_ID   = 65948
ELEMENT_SET_NO = 999
REV_AT_EPOCH   = 578
BSTAR          = .29764E-2
MEAN_MOTION_DOT = .105472E-2
MEAN_MOTION_DDOT = 0

CCSDS_OMM_VERS = 2.0
CREATION_DATE  = 
ORIGINATOR     = 

OBJECT_NAME    = KUIPER-00117
OBJECT_ID      = 2025-228C
CENTER_NAME    = EARTH
REF_FRAME      = TEME
TIME_SYSTEM    = UTC
MEAN_ELEMENT_THEORY = SGP/SGP4

EPOCH          = 2025-11-12T20:00:03.000384
MEAN_MOTION    = 15.33124195
ECCENTRICITY   = .0007383
INCLINATION    = 51.8800
RA_OF_ASC_NODE = 164.6241
ARG_OF_PERICENTER = 243.8494
MEAN_ANOMALY   = 105.5947

EPHEMERIS_TYPE = 0
CLASSIFICATION_TYPE = U
NORAD_CAT_ID   = 65949
ELEMENT_SET_NO = 999
REV_AT_EPOCH   = 524
BSTAR          = -.268E-1
MEAN_MOTION_DOT = -.807844E-2
MEAN_MOTION_DDOT = 0

CCSDS_OMM_VERS = 2.0
CREATION_DATE  = 
ORIGINATOR     = 

OBJECT_NAME    = KUIPER-00121
OBJECT_ID      = 2025-228D
CENTER_NAME    = EARTH
REF_FRAME      = TEME
TIME_SYSTEM    = UTC
MEAN_ELEMENT_THEORY = SGP/SGP4

EPOCH          = 2025-11-12T20:16:24.246048
MEAN_MOTION    = 15.34820392
ECCENTRICITY   = .0005308
INCLINATION    = 51.8828
RA_OF_ASC_NODE = 164.6881
ARG_OF_PERICENTER = 256.3970
MEAN_ANOMALY   = 103.6425

EPHEMERIS_TYPE = 0
CLASSIFICATION_TYPE = U
NORAD_CAT_ID   = 65950
ELEMENT_SET_NO = 999
REV_AT_EPOCH   = 582
BSTAR          = .20844E-2
MEAN_MOTION_DOT = .71769E-3
MEAN_MOTION_DDOT = 0

CCSDS_OMM_VERS = 2.0
CREATION_DATE  = 
ORIGINATOR     = 

OBJECT_NAME    = KUIPER-00122
OBJECT_ID      = 2025-228E
CENTER_NAME    = EARTH
REF_FRAME      = TEME
TIME_SYSTEM    = UTC
MEAN_ELEMENT_THEORY = SGP/SGP4

EPOCH          = 2025-11-12T20:00:03.000384
MEAN_MOTION    = 15.22286477
ECCENTRICITY   = .0006338
INCLINATION    = 51.8826
RA_OF_ASC_NODE = 165.3271
ARG_OF_PERICENTER = 272.5904
MEAN_ANOMALY   = 115.6623

EPHEMERIS_TYPE = 0
CLASSIFICATION_TYPE = U
NORAD_CAT_ID   = 65951
ELEMENT_SET_NO = 999
REV_AT_EPOCH   = 444
BSTAR          = -.23617E-1
MEAN_MOTION_DOT = -.515012E-2
MEAN_MOTION_DDOT = 0

CCSDS_OMM_VERS = 2.0
CREATION_DATE  = 
ORIGINATOR     = 

OBJECT_NAME    = KUIPER-00123
OBJECT_ID      = 2025-228F
CENTER_NAME    = EARTH
REF_FRAME      = TEME
TIME_SYSTEM    = UTC
MEAN_ELEMENT_THEORY = SGP/SGP4

EPOCH          = 2025-11-12T20:00:03.000384
MEAN_MOTION    = 15.21988439
ECCENTRICITY   = .000601
INCLINATION    = 51.8840
RA_OF_ASC_NODE = 165.3448
ARG_OF_PERICENTER = 254.0402
MEAN_ANOMALY   = 83.2708

EPHEMERIS_TYPE = 0
CLASSIFICATION_TYPE = U
NORAD_CAT_ID   = 65952
ELEMENT_SET_NO = 999
REV_AT_EPOCH   = 274
BSTAR          = -.50998E-1
MEAN_MOTION_DOT = -.1080175E-1
MEAN_MOTION_DDOT = 0

CCSDS_OMM_VERS = 2.0
CREATION_DATE  = 
ORIGINATOR     = 

OBJECT_NAME    = KUIPER-00124
OBJECT_ID      = 2025-228G
CENTER_NAME    = EARTH
REF_FRAME      = TEME
TIME_SYSTEM    = UTC
MEAN_ELEMENT_THEORY = SGP/SGP4

EPOCH          = 2025-11-12T20:21:19.753056
MEAN_MOTION    = 15.34433073
ECCENTRICITY   = .0005217
INCLINATION    = 51.8792
RA_OF_ASC_NODE = 164.7057
ARG_OF_PERICENTER = 274.1948
MEAN_ANOMALY   = 85.8441

EPHEMERIS_TYPE = 0
CLASSIFICATION_TYPE = U
NORAD_CAT_ID   = 65953
ELEMENT_SET_NO = 999
REV_AT_EPOCH   = 582
BSTAR          = .15224E-2
MEAN_MOTION_DOT = .51533E-3
MEAN_MOTION_DDOT = 0

CCSDS_OMM_VERS = 2.0
CREATION_DATE  = 
ORIGINATOR     = 

OBJECT_NAME    = KUIPER-00125
OBJECT_ID      = 2025-228H
CENTER_NAME    = EARTH
REF_FRAME      = TEME
TIME_SYSTEM    = UTC
MEAN_ELEMENT_THEORY = SGP/SGP4

EPOCH          = 2025-11-12T07:39:22.635936
MEAN_MOTION    = 15.35073080
ECCENTRICITY   = .0004739
INCLINATION    = 51.8779
RA_OF_ASC_NODE = 167.1581
ARG_OF_PERICENTER = 245.4129
MEAN_ANOMALY   = 114.6363

EPHEMERIS_TYPE = 0
CLASSIFICATION_TYPE = U
NORAD_CAT_ID   = 65954
ELEMENT_SET_NO = 999
REV_AT_EPOCH   = 574
BSTAR          = .23599E-2
MEAN_MOTION_DOT = .82072E-3
MEAN_MOTION_DDOT = 0

CCSDS_OMM_VERS = 2.0
CREATION_DATE  = 
ORIGINATOR     = 

OBJECT_NAME    = KUIPER-00126
OBJECT_ID      = 2025-228J
CENTER_NAME    = EARTH
REF_FRAME      = TEME
TIME_SYSTEM    = UTC
MEAN_ELEMENT_THEORY = SGP/SGP4

EPOCH          = 2025-11-12T20:00:03.000384
MEAN_MOTION    = 15.27835575
ECCENTRICITY   = .0005624
INCLINATION    = 51.8804
RA_OF_ASC_NODE = 164.9317
ARG_OF_PERICENTER = 272.0258
MEAN_ANOMALY   = 278.7573

EPHEMERIS_TYPE = 0
CLASSIFICATION_TYPE = U
NORAD_CAT_ID   = 65955
ELEMENT_SET_NO = 999
REV_AT_EPOCH   = 524
BSTAR          = -.31434E-1
MEAN_MOTION_DOT = -.8032E-2
MEAN_MOTION_DDOT = 0

CCSDS_OMM_VERS = 2.0
CREATION_DATE  = 
ORIGINATOR     = 

OBJECT_NAME    = KUIPER-00127
OBJECT_ID      = 2025-228K
CENTER_NAME    = EARTH
REF_FRAME      = TEME
TIME_SYSTEM    = UTC
MEAN_ELEMENT_THEORY = SGP/SGP4

EPOCH          = 2025-11-12T20:00:03.000384
MEAN_MOTION    = 15.34489445
ECCENTRICITY   = .0005464
INCLINATION    = 51.8794
RA_OF_ASC_NODE = 164.6263
ARG_OF_PERICENTER = 245.8295
MEAN_ANOMALY   = 109.5818

EPHEMERIS_TYPE = 0
CLASSIFICATION_TYPE = U
NORAD_CAT_ID   = 65956
ELEMENT_SET_NO = 999
REV_AT_EPOCH   = 467
BSTAR          = -.39618E-1
MEAN_MOTION_DOT = -.1219349E-1
MEAN_MOTION_DDOT = 0

CCSDS_OMM_VERS = 2.0
CREATION_DATE  = 
ORIGINATOR     = 

OBJECT_NAME    = KUIPER-00128
OBJECT_ID      = 2025-228L
CENTER_NAME    = EARTH
REF_FRAME      = TEME
TIME_SYSTEM    = UTC
MEAN_ELEMENT_THEORY = SGP/SGP4

EPOCH          = 2025-11-11T20:40:54.679008
MEAN_MOTION    = 15.34898350
ECCENTRICITY   = .00070186
INCLINATION    = 51.8835
RA_OF_ASC_NODE = 169.3511
ARG_OF_PERICENTER = 246.6847
MEAN_ANOMALY   = 113.3401

EPHEMERIS_TYPE = 0
CLASSIFICATION_TYPE = U
NORAD_CAT_ID   = 65957
ELEMENT_SET_NO = 999
REV_AT_EPOCH   = 567
BSTAR          = .94865429E-3
MEAN_MOTION_DOT = .32376E-3
MEAN_MOTION_DDOT = 0

CCSDS_OMM_VERS = 2.0
CREATION_DATE  = 
ORIGINATOR     = 

OBJECT_NAME    = KUIPER-00129
OBJECT_ID      = 2025-228M
CENTER_NAME    = EARTH
REF_FRAME      = TEME
TIME_SYSTEM    = UTC
MEAN_ELEMENT_THEORY = SGP/SGP4

EPOCH          = 2025-11-12T13:50:49.650720
MEAN_MOTION    = 15.35220320
ECCENTRICITY   = .0004293
INCLINATION    = 51.8757
RA_OF_ASC_NODE = 165.8946
ARG_OF_PERICENTER = 228.5642
MEAN_ANOMALY   = 131.4975

EPHEMERIS_TYPE = 0
CLASSIFICATION_TYPE = U
NORAD_CAT_ID   = 65958
ELEMENT_SET_NO = 999
REV_AT_EPOCH   = 578
BSTAR          = .23183E-2
MEAN_MOTION_DOT = .80982E-3
MEAN_MOTION_DDOT = 0

